{"type": "FeatureCollection", "features": [ {"type": "Feature", "properties": {"norad_id": 30570, "name": "FENGYUN 1C DEB", "group": "fengyun-1c-debris", "lat": -79.21989534600714, "lon": 153.449023306448, "alt_km": 845.2109333573735, "timestamp": "2025-12-20T18:51:31.991475+00:00", "meta": {"OBJECT_NAME": "FENGYUN 1C DEB", "OBJECT_ID": "1999-025ALL", "EPOCH": "2025-12-20T00:46:46.594272", "MEAN_MOTION": 14.14280873, "ECCENTRICITY": 0.00356165, "INCLINATION": 98.7141, "RA_OF_ASC_NODE": 26.3744, "ARG_OF_PERICENTER": 191.052, "MEAN_ANOMALY": 198.9483, "EPHEMERIS_TYPE": 0, "CLASSIFICATION_TYPE": "U", "NORAD_CAT_ID": 30570, "ELEMENT_SET_NO": 999, "REV_AT_EPOCH": 97101, "BSTAR": 0.00035616408, "MEAN_MOTION_DOT": 6.41e-06, "MEAN_MOTION_DDOT": 0}, "tle": {"line1": "1 30570U 99025ALL 25354.03248373  .00000641  00000+0  35616-3 0  9993", "line2": "2 30570  98.7141  26.3744 0035616 191.0520 198.9483 14.14280873971010"}}, "geometry": {"type": "Point", "coordinates": [153.449023306448, -79.21989534600714]}}, {"type": "Feature", "properties": {"norad_id": 30571, "name": "FENGYUN 1C DEB", "group": "fengyun-1c-debris", "lat": 79.41242080877905, "lon": -103.93755495687915, "alt_km": 855.8858421977857, "timestamp": "2025-12-20T18:51:31.991485+00:00", "meta": {"OBJECT_NAME": "FENGYUN 1C DEB", "OBJECT_ID": "1999-025ALM", "EPOCH": "2025-12-20T01:30:13.587264", "MEAN_MOTION": 14.10702164, "ECCENTRICITY": 0.00211012, "INCLINATION": 98.7304, "RA_OF_ASC_NODE": 20.0676, "ARG_OF_PERICENTER": 212.5484, "MEAN_ANOMALY": 173.2811, "EPHEMERIS_TYPE": 0, "CLASSIFICATION_TYPE": "U", "NORAD_CAT_ID": 30571, "ELEMENT_SET_NO": 999, "REV_AT_EPOCH": 96990, "BSTAR": 0.00019743493, "MEAN_MOTION_DOT": 3.11e-06, "MEAN_MOTION_DDOT": 0}, "tle": {"line1": "1 30571U 99025ALM 25354.06265726  .00000311  00000+0  19743-3 0  9995", "line2": "2 30571  98.7304  20.0676 0021101 212.5484 173.2811 14.10702164969903"}}, "geometry": {"type": "Point", "coordinates": [-103.93755495687915, 79.41242080877905]}}, {"type": "Feature", "properties": {"norad_id": 30572, "name": "FENGYUN 1C DEB", "group": "fengyun-1c-debris", "lat": -47.917772694170594, "lon": 34.03764796820877, "alt_km": 858.400544578536, "timestamp": "2025-12-20T18:51:31.991495+00:00", "meta": {"OBJECT_NAME": "FENGYUN 1C DEB", "OBJECT_ID": "1999-025ALN", "EPOCH": "2025-12-20T00:37:38.002656", "MEAN_MOTION": 14.08928111, "ECCENTRICITY": 0.00210248, "INCLINATION": 98.7713, "RA_OF_ASC_NODE": 23.4539, "ARG_OF_PERICENTER": 272.052, "MEAN_ANOMALY": 148.2748, "EPHEMERIS_TYPE": 0, "CLASSIFICATION_TYPE": "U", "NORAD_CAT_ID": 30572, "ELEMENT_SET_NO": 999, "REV_AT_EPOCH": 96864, "BSTAR": 0.0002796151, "MEAN_MOTION_DOT": 4.41e-06, "MEAN_MOTION_DDOT": 0}, "tle": {"line1": "1 30572U 99025ALN 25354.02613429  .00000441  00000+0  27962-3 0  9995", "line2": "2 30572  98.7713  23.4539 0021024 272.0520 148.2748 14.08928111968649"}}, "geometry": {"type": "Point", "coordinates": [34.03764796820877, -47.917772694170594]}}, {"type": "Feature", "properties": {"norad_id": 30573, "name": "FENGYUN 1C DEB", "group": "fengyun-1c-debris", "lat": 24.07189862950181, "lon": 28.61462095545411, "alt_km": 889.1310758164764, "timestamp": "2025-12-20T18:51:31.991505+00:00", "meta": {"OBJECT_NAME": "FENGYUN 1C DEB", "OBJECT_ID": "1999-025ALP", "EPOCH": "2025-12-20T02:01:14.834208", "MEAN_MOTION": 14.13884885, "ECCENTRICITY": 0.00886638, "INCLINATION": 99.226, "RA_OF_ASC_NODE": 32.0547, "ARG_OF_PERICENTER": 253.093, "MEAN_ANOMALY": 161.5706, "EPHEMERIS_TYPE": 0, "CLASSIFICATION_TYPE": "U", "NORAD_CAT_ID": 30573, "ELEMENT_SET_NO": 999, "REV_AT_EPOCH": 96301, "BSTAR": 0.0012425059, "MEAN_MOTION_DOT": 2.398e-05, "MEAN_MOTION_DDOT": 0}, "tle": {"line1": "1 30573U 99025ALP 25354.08419947  .00002398  00000+0  12425-2 0  9991", "line2": "2 30573  99.2260  32.0547 0088663 253.0930 161.5706 14.13884885963017"}}, "geometry": {"type": "Point", "coordinates": [28.61462095545411, 24.07189862950181]}}, {"type": "Feature", "properties": {"norad_id": 30574, "name": "FENGYUN 1C DEB", "group": "fengyun-1c-debris", "lat": -13.135814388334362, "lon": 160.40644892068613, "alt_km": 825.4128974982341, "timestamp": "2025-12-20T18:51:31.991515+00:00", "meta": {"OBJECT_NAME": "FENGYUN 1C DEB", "OBJECT_ID": "1999-025ALQ", "EPOCH": "2025-12-16T10:20:02.300352", "MEAN_MOTION": 13.77540272, "ECCENTRICITY": 0.02195385, "INCLINATION": 99.3019, "RA_OF_ASC_NODE": 153.9483, "ARG_OF_PERICENTER": 337.7191, "MEAN_ANOMALY": 21.4533, "EPHEMERIS_TYPE": 0, "CLASSIFICATION_TYPE": "U", "NORAD_CAT_ID": 30574, "ELEMENT_SET_NO": 999, "REV_AT_EPOCH": 93819, "BSTAR": 0.0019113578, "MEAN_MOTION_DOT": 2.231e-05, "MEAN_MOTION_DDOT": 0}, "tle": {"line1": "1 30574U 99025ALQ 25350.43058218  .00002231  00000+0  19114-2 0  9995", "line2": "2 30574  99.3019 153.9483 0219538 337.7191  21.4533 13.77540272938190"}}, "geometry": {"type": "Point", "coordinates": [160.40644892068613, -13.135814388334362]}}, {"type": "Feature", "properties": {"norad_id": 30575, "name": "FENGYUN 1C DEB", "group": "fengyun-1c-debris", "lat": 47.65107551406369, "lon": -83.5219717607186, "alt_km": 747.9006427128697, "timestamp": "2025-12-20T18:51:31.991525+00:00", "meta": {"OBJECT_NAME": "FENGYUN 1C DEB", "OBJECT_ID": "1999-025ALR", "EPOCH": "2025-12-20T00:43:22.310976", "MEAN_MOTION": 14.40103576, "ECCENTRICITY": 0.00544336, "INCLINATION": 99.1696, "RA_OF_ASC_NODE": 85.4621, "ARG_OF_PERICENTER": 215.1557, "MEAN_ANOMALY": 321.467, "EPHEMERIS_TYPE": 0, "CLASSIFICATION_TYPE": "U", "NORAD_CAT_ID": 30575, "ELEMENT_SET_NO": 999, "REV_AT_EPOCH": 98322, "BSTAR": 0.00066270747, "MEAN_MOTION_DOT": 2.078e-05, "MEAN_MOTION_DDOT": 0}, "tle": {"line1": "1 30575U 99025ALR 25354.03011934  .00002078  00000+0  66271-3 0  9996", "line2": "2 30575  99.1696  85.4621 0054433 215.1557 321.4670 14.40103576983221"}}, "geometry": {"type": "Point", "coordinates": [-83.5219717607186, 47.65107551406369]}}, {"type": "Feature", "properties": {"norad_id": 30577, "name": "FENGYUN 1C DEB", "group": "fengyun-1c-debris", "lat": 64.96786740586147, "lon": 9.225645441297102, "alt_km": 869.3505464986456, "timestamp": "2025-12-20T18:51:31.991535+00:00", "meta": {"OBJECT_NAME": "FENGYUN 1C DEB", "OBJECT_ID": "1999-025ALT", "EPOCH": "2025-12-19T01:49:57.097056", "MEAN_MOTION": 14.11155186, "ECCENTRICITY": 0.00287405, "INCLINATION": 98.7698, "RA_OF_ASC_NODE": 26.8589, "ARG_OF_PERICENTER": 263.6755, "MEAN_ANOMALY": 123.4121, "EPHEMERIS_TYPE": 0, "CLASSIFICATION_TYPE": "U", "NORAD_CAT_ID": 30577, "ELEMENT_SET_NO": 999, "REV_AT_EPOCH": 96874, "BSTAR": 0.00039029254, "MEAN_MOTION_DOT": 6.63e-06, "MEAN_MOTION_DDOT": 0}, "tle": {"line1": "1 30577U 99025ALT 25353.07635529  .00000663  00000+0  39029-3 0  9992", "line2": "2 30577  98.7698  26.8589 0028740 263.6755 123.4121 14.11155186968745"}}, "geometry": {"type": "Point", "coordinates": [9.225645441297102, 64.96786740586147]}}, {"type": "Feature", "properties": {"norad_id": 30579, "name": "FENGYUN 1C DEB", "group": "fengyun-1c-debris", "lat": 75.32875533771396, "lon": -124.46345727695008, "alt_km": 831.9445526203554, "timestamp": "2025-12-20T18:51:31.991545+00:00", "meta": {"OBJECT_NAME": "FENGYUN 1C DEB", "OBJECT_ID": "1999-025ALV", "EPOCH": "2025-12-18T08:21:16.566624", "MEAN_MOTION": 14.05258046, "ECCENTRICITY": 0.00536895, "INCLINATION": 98.8067, "RA_OF_ASC_NODE": 16.861, "ARG_OF_PERICENTER": 88.0752, "MEAN_ANOMALY": 288.2452, "EPHEMERIS_TYPE": 0, "CLASSIFICATION_TYPE": "U", "NORAD_CAT_ID": 30579, "ELEMENT_SET_NO": 999, "REV_AT_EPOCH": 96536, "BSTAR": 0.00031134319, "MEAN_MOTION_DOT": 4.68e-06, "MEAN_MOTION_DDOT": 0}, "tle": {"line1": "1 30579U 99025ALV 25352.34810841  .00000468  00000+0  31134-3 0  9997", "line2": "2 30579  98.8067  16.8610 0053689  88.0752 288.2452 14.05258046965362"}}, "geometry": {"type": "Point", "coordinates": [-124.46345727695008, 75.32875533771396]}}, {"type": "Feature", "properties": {"norad_id": 30594, "name": "FENGYUN 1C DEB", "group": "fengyun-1c-debris", "lat": 10.014906518837845, "lon": -150.42081278477085, "alt_km": 801.2967599605063, "timestamp": "2025-12-20T18:51:31.991555+00:00", "meta": {"OBJECT_NAME": "FENGYUN 1C DEB", "OBJECT_ID": "1999-025ALZ", "EPOCH": "2025-12-18T00:44:12.662304", "MEAN_MOTION": 14.17345425, "ECCENTRICITY": 0.01932042, "INCLINATION": 99.1508, "RA_OF_ASC_NODE": 208.3733, "ARG_OF_PERICENTER": 301.333, "MEAN_ANOMALY": 56.9059, "EPHEMERIS_TYPE": 0, "CLASSIFICATION_TYPE": "U", "NORAD_CAT_ID": 30594, "ELEMENT_SET_NO": 999, "REV_AT_EPOCH": 97654, "BSTAR": 0.00015586858, "MEAN_MOTION_DOT": 3.28e-06, "MEAN_MOTION_DDOT": 0}, "tle": {"line1": "1 30594U 99025ALZ 25352.03070211  .00000328  00000+0  15587-3 0  9998", "line2": "2 30594  99.1508 208.3733 0193204 301.3330  56.9059 14.17345425976544"}}, "geometry": {"type": "Point", "coordinates": [-150.42081278477085, 10.014906518837845]}}, {"type": "Feature", "properties": {"norad_id": 30596, "name": "FENGYUN 1C DEB", "group": "fengyun-1c-debris", "lat": 71.58209752066563, "lon": -161.31066361516244, "alt_km": 934.3155215691959, "timestamp": "2025-12-20T18:51:31.991565+00:00", "meta": {"OBJECT_NAME": "FENGYUN 1C DEB", "OBJECT_ID": "1999-025AMB", "EPOCH": "2025-12-20T12:16:23.179296", "MEAN_MOTION": 14.34379571, "ECCENTRICITY": 0.02471983, "INCLINATION": 98.4132, "RA_OF_ASC_NODE": 352.0347, "ARG_OF_PERICENTER": 265.8226, "MEAN_ANOMALY": 225.4808, "EPHEMERIS_TYPE": 0, "CLASSIFICATION_TYPE": "U", "NORAD_CAT_ID": 30596, "ELEMENT_SET_NO": 999, "REV_AT_EPOCH": 98672, "BSTAR": 0.00020806481, "MEAN_MOTION_DOT": 7.7e-06, "MEAN_MOTION_DDOT": 0}, "tle": {"line1": "1 30596U 99025AMB 25354.51137939  .00000770  00000+0  20806-3 0  9997", "line2": "2 30596  98.4132 352.0347 0247198 265.8226 225.4808 14.34379571986723"}}, "geometry": {"type": "Point", "coordinates": [-161.31066361516244, 71.58209752066563]}}]}